sat06276
1 06276U 72089B   20046.81397928 -.00000020  00000-0  10557-4 0  9991
2 06276  98.5680 254.5917 0035827 322.1722  37.6938 14.21250170447695
